STARLINK-36865          
1 67930U 26036AC  26079.58335648 -.00069018  00000+0 -11798-2 0  9991
2 67930  42.9998 184.1249 0001757 288.1228  69.0231 15.50605699  5392
STARLINK-36781          
1 67931U 26036AD  26079.50001157 -.00206818  00000+0 -36037-2 0  9993
2 67931  43.0001 184.6623 0001468 279.6357 311.3430 15.50654005  5386
STARLINK-36301          
1 67932U 26037A   26079.50001157 -.01925823  00000+0 -16679-1 0  9999
2 67932  42.9991 132.4562 0001391 276.8030  27.4033 15.71195229  4843
STARLINK-36852          
1 67933U 26037B   26079.58335648 -.01818601  00000+0 -31244-1 0  9993
2 67933  42.9987 132.6644 0001462 294.7941 195.1994 15.53691897  4943
STARLINK-36861          
1 67934U 26037C   26079.50001157 -.01924833  00000+0 -19749-1 0  9992
2 67934  42.9992 132.5470 0001251 273.4582 354.5150 15.67145098  4933
STARLINK-36860          
1 67935U 26037D   26079.50001157 -.01853394  00000+0 -25535-1 0  9996
2 67935  42.9994 132.8345 0001489 299.5906 212.4537 15.59614401  4933
STARLINK-36848          
1 67936U 26037E   26079.58335648 -.01826887  00000+0 -28000-1 0  9997
2 67936  43.0000 132.4461 0001269 284.8675 293.0510 15.56773543  4942
STARLINK-36370          
1 67937U 26037F   26079.50001157 -.01894692  00000+0 -25279-1 0  9999
2 67937  42.9993 132.7833 0001123 285.3518 247.6738 15.60521413  4937
STARLINK-36371          
1 67938U 26037G   26079.50001157 -.01913673  00000+0 -21916-1 0  9995
2 67938  42.9993 132.5976 0001238 279.0232 328.0015 15.64419455  4932
STARLINK-36246          
1 67939U 26037H   26079.58335648 -.01842833  00000+0 -27420-1 0  9994
2 67939  42.9992 132.3812 0001230 273.5657 330.1022 15.57586369  4866
STARLINK-36907          
1 67940U 26037J   26079.58335648 -.01884035  00000+0 -17864-1 0  9997
2 67940  42.9991 131.8929 0001345 286.4020 153.2842 15.68981502  4958
STARLINK-36927          
1 67941U 26037K   26079.58335648 -.01880649  00000+0 -20015-1 0  9997
2 67941  42.9992 131.9580 0001455 287.4962 125.9250 15.66174828  4954
STARLINK-36914          
1 67942U 26037L   26079.58335648 -.01853432  00000+0 -15009-1 0  9995
2 67942  42.9990 131.8165 0001300 290.6200 179.8153 15.73160560  4957
STARLINK-36851          
1 67943U 26037M   26079.58335648 -.01882164  00000+0 -19240-1 0  9991
2 67943  42.9990 131.9579 0001313 285.9247 127.7121 15.67163254  4953
STARLINK-36892          
1 67944U 26037N   26079.50001157 -.01919655  00000+0 -18744-1 0  9993
2 67944  42.9990 132.4130 0001391 276.1281  44.9584 15.68333630  4938
STARLINK-36908          
1 67945U 26037P   26079.58335648 -.01880867  00000+0 -17961-1 0  9999
2 67945  42.9992 131.8653 0001291 289.7498 160.8087 15.68806974  4957
