[{"OBJECT_NAME":"STARLINK-36865","OBJECT_ID":"2026-036AC","EPOCH":"2026-03-20T14:00:01.999872","MEAN_MOTION":15.50605699,"ECCENTRICITY":0.00017572,"INCLINATION":42.9998,"RA_OF_ASC_NODE":184.1249,"ARG_OF_PERICENTER":288.1228,"MEAN_ANOMALY":69.0231,"EPHEMERIS_TYPE":0,"CLASSIFICATION_TYPE":"U","NORAD_CAT_ID":67930,"ELEMENT_SET_NO":999,"REV_AT_EPOCH":539,"BSTAR":-0.0011798472,"MEAN_MOTION_DOT":-0.00069018,"MEAN_MOTION_DDOT":0},{"OBJECT_NAME":"STARLINK-36781","OBJECT_ID":"2026-036AD","EPOCH":"2026-03-20T12:00:00.999648","MEAN_MOTION":15.50654005,"ECCENTRICITY":0.00014684,"INCLINATION":43.0001,"RA_OF_ASC_NODE":184.6623,"ARG_OF_PERICENTER":279.6357,"MEAN_ANOMALY":311.343,"EPHEMERIS_TYPE":0,"CLASSIFICATION_TYPE":"U","NORAD_CAT_ID":67931,"ELEMENT_SET_NO":999,"REV_AT_EPOCH":538,"BSTAR":-0.0036036622,"MEAN_MOTION_DOT":-0.00206818,"MEAN_MOTION_DDOT":0},{"OBJECT_NAME":"STARLINK-36301","OBJECT_ID":"2026-037A","EPOCH":"2026-03-20T12:00:00.999648","MEAN_MOTION":15.71195229,"ECCENTRICITY":0.00013917,"INCLINATION":42.9991,"RA_OF_ASC_NODE":132.4562,"ARG_OF_PERICENTER":276.803,"MEAN_ANOMALY":27.4033,"EPHEMERIS_TYPE":0,"CLASSIFICATION_TYPE":"U","NORAD_CAT_ID":67932,"ELEMENT_SET_NO":999,"REV_AT_EPOCH":484,"BSTAR":-0.016678816,"MEAN_MOTION_DOT":-0.01925823,"MEAN_MOTION_DDOT":0},{"OBJECT_NAME":"STARLINK-36852","OBJECT_ID":"2026-037B","EPOCH":"2026-03-20T14:00:01.999872","MEAN_MOTION":15.53691897,"ECCENTRICITY":0.00014622,"INCLINATION":42.9987,"RA_OF_ASC_NODE":132.6644,"ARG_OF_PERICENTER":294.7941,"MEAN_ANOMALY":195.1994,"EPHEMERIS_TYPE":0,"CLASSIFICATION_TYPE":"U","NORAD_CAT_ID":67933,"ELEMENT_SET_NO":999,"REV_AT_EPOCH":494,"BSTAR":-0.031244379,"MEAN_MOTION_DOT":-0.01818601,"MEAN_MOTION_DDOT":0},{"OBJECT_NAME":"STARLINK-36861","OBJECT_ID":"2026-037C","EPOCH":"2026-03-20T12:00:00.999648","MEAN_MOTION":15.67145098,"ECCENTRICITY":0.00012519,"INCLINATION":42.9992,"RA_OF_ASC_NODE":132.547,"ARG_OF_PERICENTER":273.4582,"MEAN_ANOMALY":354.515,"EPHEMERIS_TYPE":0,"CLASSIFICATION_TYPE":"U","NORAD_CAT_ID":67934,"ELEMENT_SET_NO":999,"REV_AT_EPOCH":493,"BSTAR":-0.01974866,"MEAN_MOTION_DOT":-0.01924833,"MEAN_MOTION_DDOT":0},{"OBJECT_NAME":"STARLINK-36860","OBJECT_ID":"2026-037D","EPOCH":"2026-03-20T12:00:00.999648","MEAN_MOTION":15.59614401,"ECCENTRICITY":0.00014891,"INCLINATION":42.9994,"RA_OF_ASC_NODE":132.8345,"ARG_OF_PERICENTER":299.5906,"MEAN_ANOMALY":212.4537,"EPHEMERIS_TYPE":0,"CLASSIFICATION_TYPE":"U","NORAD_CAT_ID":67935,"ELEMENT_SET_NO":999,"REV_AT_EPOCH":493,"BSTAR":-0.025534901,"MEAN_MOTION_DOT":-0.01853394,"MEAN_MOTION_DDOT":0},{"OBJECT_NAME":"STARLINK-36848","OBJECT_ID":"2026-037E","EPOCH":"2026-03-20T14:00:01.999872","MEAN_MOTION":15.56773543,"ECCENTRICITY":0.00012697,"INCLINATION":43,"RA_OF_ASC_NODE":132.4461,"ARG_OF_PERICENTER":284.8675,"MEAN_ANOMALY":293.051,"EPHEMERIS_TYPE":0,"CLASSIFICATION_TYPE":"U","NORAD_CAT_ID":67936,"ELEMENT_SET_NO":999,"REV_AT_EPOCH":494,"BSTAR":-0.028000473,"MEAN_MOTION_DOT":-0.01826887,"MEAN_MOTION_DDOT":0},{"OBJECT_NAME":"STARLINK-36370","OBJECT_ID":"2026-037F","EPOCH":"2026-03-20T12:00:00.999648","MEAN_MOTION":15.60521413,"ECCENTRICITY":0.00011239,"INCLINATION":42.9993,"RA_OF_ASC_NODE":132.7833,"ARG_OF_PERICENTER":285.3518,"MEAN_ANOMALY":247.6738,"EPHEMERIS_TYPE":0,"CLASSIFICATION_TYPE":"U","NORAD_CAT_ID":67937,"ELEMENT_SET_NO":999,"REV_AT_EPOCH":493,"BSTAR":-0.025278886,"MEAN_MOTION_DOT":-0.01894692,"MEAN_MOTION_DDOT":0},{"OBJECT_NAME":"STARLINK-36371","OBJECT_ID":"2026-037G","EPOCH":"2026-03-20T12:00:00.999648","MEAN_MOTION":15.64419455,"ECCENTRICITY":0.00012387,"INCLINATION":42.9993,"RA_OF_ASC_NODE":132.5976,"ARG_OF_PERICENTER":279.0232,"MEAN_ANOMALY":328.0015,"EPHEMERIS_TYPE":0,"CLASSIFICATION_TYPE":"U","NORAD_CAT_ID":67938,"ELEMENT_SET_NO":999,"REV_AT_EPOCH":493,"BSTAR":-0.021916277,"MEAN_MOTION_DOT":-0.01913673,"MEAN_MOTION_DDOT":0},{"OBJECT_NAME":"STARLINK-36246","OBJECT_ID":"2026-037H","EPOCH":"2026-03-20T14:00:01.999872","MEAN_MOTION":15.57586369,"ECCENTRICITY":0.00012309,"INCLINATION":42.9992,"RA_OF_ASC_NODE":132.3812,"ARG_OF_PERICENTER":273.5657,"MEAN_ANOMALY":330.1022,"EPHEMERIS_TYPE":0,"CLASSIFICATION_TYPE":"U","NORAD_CAT_ID":67939,"ELEMENT_SET_NO":999,"REV_AT_EPOCH":486,"BSTAR":-0.027420454,"MEAN_MOTION_DOT":-0.01842833,"MEAN_MOTION_DDOT":0},{"OBJECT_NAME":"STARLINK-36907","OBJECT_ID":"2026-037J","EPOCH":"2026-03-20T14:00:01.999872","MEAN_MOTION":15.68981502,"ECCENTRICITY":0.00013455,"INCLINATION":42.9991,"RA_OF_ASC_NODE":131.8929,"ARG_OF_PERICENTER":286.402,"MEAN_ANOMALY":153.2842,"EPHEMERIS_TYPE":0,"CLASSIFICATION_TYPE":"U","NORAD_CAT_ID":67940,"ELEMENT_SET_NO":999,"REV_AT_EPOCH":495,"BSTAR":-0.017864111,"MEAN_MOTION_DOT":-0.01884035,"MEAN_MOTION_DDOT":0},{"OBJECT_NAME":"STARLINK-36927","OBJECT_ID":"2026-037K","EPOCH":"2026-03-20T14:00:01.999872","MEAN_MOTION":15.66174828,"ECCENTRICITY":0.00014553,"INCLINATION":42.9992,"RA_OF_ASC_NODE":131.958,"ARG_OF_PERICENTER":287.4962,"MEAN_ANOMALY":125.925,"EPHEMERIS_TYPE":0,"CLASSIFICATION_TYPE":"U","NORAD_CAT_ID":67941,"ELEMENT_SET_NO":999,"REV_AT_EPOCH":495,"BSTAR":-0.020015047,"MEAN_MOTION_DOT":-0.01880649,"MEAN_MOTION_DDOT":0},{"OBJECT_NAME":"STARLINK-36914","OBJECT_ID":"2026-037L","EPOCH":"2026-03-20T14:00:01.999872","MEAN_MOTION":15.7316056,"ECCENTRICITY":0.00013,"INCLINATION":42.999,"RA_OF_ASC_NODE":131.8165,"ARG_OF_PERICENTER":290.62,"MEAN_ANOMALY":179.8153,"EPHEMERIS_TYPE":0,"CLASSIFICATION_TYPE":"U","NORAD_CAT_ID":67942,"ELEMENT_SET_NO":999,"REV_AT_EPOCH":495,"BSTAR":-0.015008872,"MEAN_MOTION_DOT":-0.01853432,"MEAN_MOTION_DDOT":0},{"OBJECT_NAME":"STARLINK-36851","OBJECT_ID":"2026-037M","EPOCH":"2026-03-20T14:00:01.999872","MEAN_MOTION":15.67163254,"ECCENTRICITY":0.00013136,"INCLINATION":42.999,"RA_OF_ASC_NODE":131.9579,"ARG_OF_PERICENTER":285.9247,"MEAN_ANOMALY":127.7121,"EPHEMERIS_TYPE":0,"CLASSIFICATION_TYPE":"U","NORAD_CAT_ID":67943,"ELEMENT_SET_NO":999,"REV_AT_EPOCH":495,"BSTAR":-0.019240269,"MEAN_MOTION_DOT":-0.01882164,"MEAN_MOTION_DDOT":0},{"OBJECT_NAME":"STARLINK-36892","OBJECT_ID":"2026-037N","EPOCH":"2026-03-20T12:00:00.999648","MEAN_MOTION":15.6833363,"ECCENTRICITY":0.00013911,"INCLINATION":42.999,"RA_OF_ASC_NODE":132.413,"ARG_OF_PERICENTER":276.1281,"MEAN_ANOMALY":44.9584,"EPHEMERIS_TYPE":0,"CLASSIFICATION_TYPE":"U","NORAD_CAT_ID":67944,"ELEMENT_SET_NO":999,"REV_AT_EPOCH":493,"BSTAR":-0.018744109,"MEAN_MOTION_DOT":-0.01919655,"MEAN_MOTION_DDOT":0},{"OBJECT_NAME":"STARLINK-36908","OBJECT_ID":"2026-037P","EPOCH":"2026-03-20T14:00:01.999872","MEAN_MOTION":15.68806974,"ECCENTRICITY":0.00012915,"INCLINATION":42.9992,"RA_OF_ASC_NODE":131.8653,"ARG_OF_PERICENTER":289.7498,"MEAN_ANOMALY":160.8087,"EPHEMERIS_TYPE":0,"CLASSIFICATION_TYPE":"U","NORAD_CAT_ID":67945,"ELEMENT_SET_NO":999,"REV_AT_EPOCH":495,"BSTAR":-0.017961013,"MEAN_MOTION_DOT":-0.01880867,"MEAN_MOTION_DDOT":0}]
